[Satellite]
VERSION=1.1
NAME=IRIDIUM 70 [+]
NICKNAME=IRIDIUM 70 [+]
TLE1=1 25342U 98032A   18020.88502451  .00000180  00000-0  57133-4 0  9994
TLE2=2 25342  86.3994 133.3248 0002169  93.4139 266.7305 14.34215730 30000
